OBJECT_NAME,OBJECT_ID,EPOCH,MEAN_MOTION,ECCENTRICITY,INCLINATION,RA_OF_ASC_NODE,ARG_OF_PERICENTER,MEAN_ANOMALY,EPHEMERIS_TYPE,CLASSIFICATION_TYPE,NORAD_CAT_ID,ELEMENT_SET_NO,REV_AT_EPOCH,BSTAR,MEAN_MOTION_DOT,MEAN_MOTION_DDOT,sigma_x,sigma_y,sigma_z
STARLINK-11165 [DTC],2024-113E,2025-08-01T03:30:48.032928,15.69707665,0.0001218,53.1588,198.3185,89.8264,270.2893,0,U,60063,999,6512,5.4396e-06,7e-07,0.0,0.5,0.5,0.5
STARLINK-11169 [DTC],2024-113F,2025-08-01T04:55:25.085280,15.69708138,0.0001226,53.1589,197.972,87.891,272.2248,0,U,60064,999,6498,2.3529e-06,-3.04e-06,0.0,0.5,0.5,0.5
STARLINK-11102 [DTC],2024-113G,2025-08-01T04:48:21.523968,15.69705087,0.0001252,53.1588,197.9403,91.235,268.8811,0,U,60065,999,6512,3.5387e-06,-1.6e-06,0.0,0.5,0.5,0.5
STARLINK-11141 [DTC],2024-113H,2025-08-01T04:41:17.214432,15.69710388,0.0001159,53.1588,197.9067,78.3194,281.7953,0,U,60066,999,6524,8.5918e-06,4.52e-06,0.0,0.5,0.5,0.5
STARLINK-11153 [DTC],2024-113J,2025-07-31T16:20:54.282048,15.69709062,0.0001082,53.1585,201.1203,93.0244,267.0898,0,U,60067,999,6484,-8.3828e-06,-1.604e-05,0.0,0.5,0.5,0.5
STARLINK-11170 [DTC],2024-113K,2025-07-31T16:13:50.572992,15.69706561,0.0001262,53.1589,201.0857,108.5959,251.5196,0,U,60068,999,6484,-1.341e-05,-2.213e-05,0.0,0.5,0.5,0.5
STARLINK-11171 [DTC],2024-113L,2025-07-31T16:06:46.320480,15.69714991,0.0001357,53.1583,201.0538,113.724,246.392,0,U,60069,999,6484,-3.5797e-06,-1.023e-05,0.0,0.5,0.5,0.5
STARLINK-11186 [DTC],2024-113M,2025-08-01T04:13:10.961184,15.6970671,0.0001083,53.1581,198.5096,84.9456,275.1685,0,U,60070,999,6533,-1.936e-06,-8.23e-06,0.0,0.5,0.5,0.5
STARLINK-11184 [DTC],2024-113N,2025-07-31T06:42:32.799456,15.69715634,0.0001069,53.1581,202.9084,87.0712,273.0428,0,U,60071,999,6478,-3.5304e-06,-1.016e-05,0.0,0.5,0.5,0.5
STARLINK-32032,2024-113U,2025-07-31T12:45:26.126496,15.30197364,0.0001251,53.1609,306.091,81.5163,278.5979,0,U,60077,999,6337,4.9548e-06,-2.12e-06,0.0,0.5,0.5,0.5
STARLINK-31441,2024-117A,2025-07-31T15:19:29.684064,15.3018991,0.0001299,53.1612,343.8067,74.7295,285.3849,0,U,60091,999,6304,5.9021e-06,-1.84e-06,0.0,0.5,0.5,0.5
STARLINK-32044,2024-117B,2025-07-31T16:24:40.946400,15.30183032,9.58e-05,53.1618,343.379,86.3532,273.7578,0,U,60092,999,6305,-3.7706e-05,-1.475e-05,0.0,0.5,0.5,0.5
STARLINK-31239,2024-117C,2025-07-31T14:32:32.948160,15.30193067,0.0001111,53.1611,344.319,95.6712,264.4415,0,U,60093,999,6298,-1.7019e-05,-8.63e-06,0.0,0.5,0.5,0.5
STARLINK-32007,2024-117D,2025-07-31T15:46:50.965248,15.30174769,0.0001053,53.1615,343.9289,83.4157,276.6964,0,U,60094,999,6304,0.00010126,2.639e-05,0.0,0.5,0.5,0.5
STARLINK-32028,2024-117E,2025-07-31T15:33:10.702656,15.30183144,0.0001186,53.1615,343.8659,72.0231,288.0899,0,U,60095,999,6304,-2.5138e-05,-1.103e-05,0.0,0.5,0.5,0.5
STARLINK-32016,2024-117F,2025-07-31T16:00:31.805856,15.3018515,0.0001075,53.1611,343.9878,95.1262,264.9861,0,U,60096,999,6298,-2.4221e-05,-1.076e-05,0.0,0.5,0.5,0.5
STARLINK-32003,2024-117G,2025-07-31T15:13:25.152960,15.30187003,9.71e-05,53.1613,343.7799,77.6969,282.414,0,U,60097,999,6304,-1.1444e-05,-6.98e-06,0.0,0.5,0.5,0.5
STARLINK-32026,2024-117H,2025-07-31T15:27:05.165856,15.30198969,0.0001313,53.1621,343.8406,77.2858,282.8289,0,U,60098,999,6304,7.6741e-05,1.914e-05,0.0,0.5,0.5,0.5
STARLINK-31732,2024-117J,2025-07-31T16:14:03.046560,15.3017417,0.0001233,53.1609,343.3334,83.0947,277.0194,0,U,60099,999,6305,-5.6776e-05,-2.039e-05,0.0,0.5,0.5,0.5
STARLINK-31996,2024-117K,2025-07-31T16:33:47.233728,15.30189852,0.0001157,53.1617,343.4158,93.2129,266.9004,0,U,60100,999,6305,1.4609e-05,7.3e-07,0.0,0.5,0.5,0.5
STARLINK-31999,2024-117L,2025-07-31T16:05:08.257344,15.30147618,0.0001331,53.1613,344.0082,100.1453,259.9698,0,U,60101,999,6304,-0.00011646,-3.801e-05,0.0,0.5,0.5,0.5
STARLINK-31954,2024-117M,2025-07-31T15:55:57.957600,15.30189316,0.000104,53.161,343.9673,91.7561,268.3559,0,U,60102,999,6304,-1.1937e-05,-7.12e-06,0.0,0.5,0.5,0.5
STARLINK-32013,2024-117N,2025-07-31T15:51:24.447168,15.30189464,0.0001164,53.1618,343.9481,92.1714,267.942,0,U,60103,999,6304,7.5805e-07,-3.37e-06,0.0,0.5,0.5,0.5
STARLINK-32009,2024-117P,2025-07-31T16:09:38.507040,15.30176138,0.0001263,53.1613,344.0005,83.2794,276.8351,0,U,60104,999,6304,2.2176e-05,2.97e-06,0.0,0.5,0.5,0.5
STARLINK-32018,2024-117Q,2025-07-31T15:37:43.838112,15.30191008,0.0001222,53.1616,343.8854,79.278,280.8358,0,U,60105,999,6304,-3.5974e-06,-4.66e-06,0.0,0.5,0.5,0.5
STARLINK-32045,2024-117R,2025-07-31T15:42:17.289792,15.30192294,0.0001169,53.1622,343.9085,90.0864,270.0271,0,U,60106,999,6304,6.5137e-06,-1.66e-06,0.0,0.5,0.5,0.5
STARLINK-32035,2024-117S,2025-07-31T15:22:32.172960,15.30187302,0.0001301,53.1614,343.8194,77.7402,282.3744,0,U,60107,999,6304,-3.1396e-06,-4.52e-06,0.0,0.5,0.5,0.5
STARLINK-32042,2024-117T,2025-07-31T15:08:51.380736,15.30187411,0.0001253,53.1621,343.7577,87.336,272.7784,0,U,60108,999,6304,-2.2898e-06,-4.27e-06,0.0,0.5,0.5,0.5
STARLINK-32040,2024-117U,2025-07-31T15:17:58.472448,15.30186639,0.000128,53.1619,343.7984,79.8101,280.3044,0,U,60109,999,6304,2.0282e-05,2.41e-06,0.0,0.5,0.5,0.5
STARLINK-32001,2024-117V,2025-07-31T16:29:14.258112,15.30183984,0.0001247,53.1614,343.3957,95.9943,264.1199,0,U,60110,999,6305,-3.7824e-05,-1.479e-05,0.0,0.5,0.5,0.5
STARLINK-32015,2024-117W,2025-07-31T16:20:07.062720,15.30183821,0.0001169,53.1613,343.3541,106.6184,253.4945,0,U,60111,999,6305,-1.0234e-05,-6.62e-06,0.0,0.5,0.5,0.5
STARLINK-32024,2024-117X,2025-07-31T15:04:17.429664,15.30193175,0.0001346,53.1614,343.7372,82.7671,277.3483,0,U,60112,999,6304,6.2151e-05,1.482e-05,0.0,0.5,0.5,0.5
STARLINK-11201 [DTC],2024-118A,2025-07-31T11:14:06.473472,15.69706925,0.00011,53.1585,232.1223,79.256,280.8582,0,U,60113,999,6324,-4.2467e-06,-1.103e-05,0.0,0.5,0.5,0.5
STARLINK-11198 [DTC],2024-118B,2025-07-31T11:07:02.739360,15.69703306,0.0001175,53.1583,232.0919,80.8982,279.2169,0,U,60114,999,6324,-1.3521e-05,-2.226e-05,0.0,0.5,0.5,0.5
STARLINK-11112 [DTC],2024-118C,2025-07-31T07:56:36.281472,15.69713079,0.000121,53.1589,232.6843,83.1556,276.96,0,U,60115,999,6322,-9.1527e-08,-6e-06,0.0,0.5,0.5,0.5
STARLINK-11210 [DTC],2024-118D,2025-08-01T05:13:06.049632,15.69764026,0.0001387,53.1593,228.2587,78.5965,281.5209,0,U,60116,999,6424,-0.0001033,-0.00013113,0.0,0.5,0.5,0.5
STARLINK-11203 [DTC],2024-118E,2025-08-01T05:06:03.612384,15.69702175,0.0001251,53.1595,228.2272,93.2728,266.8433,0,U,60117,999,6441,-1.6919e-06,-7.94e-06,0.0,0.5,0.5,0.5
STARLINK-11177 [DTC],2024-118F,2025-08-01T01:55:37.707456,15.69698516,8.72e-05,53.1585,228.8214,89.0622,271.0496,0,U,60118,999,6439,4.9419e-08,-5.82e-06,0.0,0.5,0.5,0.5
STARLINK-11127 [DTC],2024-118G,2025-08-01T04:51:55.208448,15.69713918,0.000121,53.1588,228.1564,75.7012,284.414,0,U,60119,999,6424,6.4754e-06,1.96e-06,0.0,0.5,0.5,0.5
STARLINK-11164 [DTC],2024-118H,2025-08-01T04:44:51.614304,15.69714752,0.0001081,53.1581,228.1273,86.9848,273.1293,0,U,60120,999,6447,-2.2312e-06,-8.59e-06,0.0,0.5,0.5,0.5
STARLINK-11119 [DTC],2024-118J,2025-07-31T08:31:47.036064,15.69705438,0.0001502,53.1576,232.1093,58.4158,301.7007,0,U,60121,999,6323,-1.179e-05,-2.017e-05,0.0,0.5,0.5,0.5
STARLINK-11157 [DTC],2024-118K,2025-08-01T04:30:43.938720,15.69707323,0.0001142,53.1584,228.0601,93.2801,266.8348,0,U,60122,999,6414,8.6988e-06,4.65e-06,0.0,0.5,0.5,0.5
STARLINK-11162 [DTC],2024-118L,2025-08-01T01:13:14.904480,15.69686982,0.0001276,53.1599,228.6223,90.4675,269.6489,0,U,60123,999,6406,1.3095e-05,9.96e-06,0.0,0.5,0.5,0.5
STARLINK-11161 [DTC],2024-118M,2025-08-01T01:06:19.920096,15.69693255,0.0001406,53.1593,229.3255,109.2,250.917,0,U,60124,999,6437,1.97e-06,-3.5e-06,0.0,0.5,0.5,0.5
STARLINK-11160 [DTC],2024-118N,2025-07-31T10:17:35.428992,15.6971023,0.000119,53.1589,231.8566,97.3279,262.7875,0,U,60125,999,6324,-1.1807e-06,-7.32e-06,0.0,0.5,0.5,0.5
STARLINK-31846,2024-118P,2025-07-31T15:27:06.950880,15.30185555,0.0001557,53.1612,333.4308,91.5513,268.5666,0,U,60126,999,6185,-2.572e-06,-4.35e-06,0.0,0.5,0.5,0.5
STARLINK-31840,2024-118Q,2025-07-31T14:02:10.671936,15.3020019,0.0001119,53.1605,333.7746,93.265,266.8479,0,U,60127,999,6184,-0.00012701,-4.119e-05,0.0,0.5,0.5,0.5
STARLINK-31813,2024-118R,2025-07-31T13:57:37.132992,15.30190651,0.0001035,53.1608,333.7531,99.8334,260.2784,0,U,60128,999,6289,-3.0354e-05,-1.258e-05,0.0,0.5,0.5,0.5
STARLINK-31845,2024-118S,2025-07-31T15:27:52.581312,15.30180978,8.06e-05,53.1606,331.2965,109.946,250.1627,0,U,60129,999,6188,-5.3577e-05,-1.944e-05,0.0,0.5,0.5,0.5
STARLINK-31838,2024-118T,2025-07-31T15:45:20.748960,15.30190926,0.0001165,53.1614,333.5079,85.6029,274.5105,0,U,60130,999,6185,-1.3386e-05,-7.55e-06,0.0,0.5,0.5,0.5
STARLINK-31785,2024-118U,2025-07-31T15:21:02.334240,15.30184413,0.0001021,53.1611,333.4008,86.3667,273.745,0,U,60131,999,6288,-1.7876e-05,-8.88e-06,0.0,0.5,0.5,0.5
STARLINK-31792,2024-118V,2025-07-31T15:03:32.411808,15.30201797,6.39e-05,53.1607,331.1526,105.2227,254.8844,0,U,60132,999,6292,-6.2212e-05,-2.201e-05,0.0,0.5,0.5,0.5
STARLINK-32043,2024-120A,2025-08-01T03:56:08.274624,15.30190502,0.0001182,53.1594,264.1814,94.9841,265.1295,0,U,60135,999,6247,-2.3019e-05,-1.041e-05,0.0,0.5,0.5,0.5
STARLINK-32112,2024-120B,2025-07-31T11:27:08.483328,15.30201677,0.0001244,53.1596,267.7152,91.7835,268.3308,0,U,60136,999,6258,-7.231e-05,-2.5e-05,0.0,0.5,0.5,0.5
STARLINK-32050,2024-120C,2025-07-31T10:02:12.359904,15.30188072,0.0001198,53.1588,268.0586,79.7851,280.3285,0,U,60137,999,6219,-3.0194e-06,-4.48e-06,0.0,0.5,0.5,0.5
STARLINK-32025,2024-120D,2025-07-31T10:17:14.171136,15.30203754,0.00014,53.1597,267.4097,84.5789,275.5371,0,U,60138,999,6250,7.9393e-06,-1.24e-06,0.0,0.5,0.5,0.5
STARLINK-31867,2024-120E,2025-07-31T11:19:06.127680,15.29191515,0.0001175,53.1605,267.6829,75.9175,284.1956,0,U,60139,999,6250,-1.0013e-05,-6.43e-06,0.0,0.5,0.5,0.5
STARLINK-31694,2024-120F,2025-07-31T11:24:06.073056,15.30190145,0.0001192,53.1594,267.7002,89.2246,270.8892,0,U,60140,999,6258,-1.2464e-05,-7.28e-06,0.0,0.5,0.5,0.5
